[{"OBJECT_NAME":"NUSAT-33 (ALBANIA-2)","OBJECT_ID":"2023-001AQ","EPOCH":"2026-03-09T22:33:27.663264","MEAN_MOTION":15.26923259,"ECCENTRICITY":0.00076854,"INCLINATION":97.3178,"RA_OF_ASC_NODE":131.8399,"ARG_OF_PERICENTER":52.546,"MEAN_ANOMALY":307.6477,"EPHEMERIS_TYPE":0,"CLASSIFICATION_TYPE":"U","NORAD_CAT_ID":55047,"ELEMENT_SET_NO":999,"REV_AT_EPOCH":17716,"BSTAR":0.0004947656,"MEAN_MOTION_DOT":0.00013029,"MEAN_MOTION_DDOT":0},{"OBJECT_NAME":"STARLINK-34091","OBJECT_ID":"2025-092E","EPOCH":"2026-03-09T07:11:29.213088","MEAN_MOTION":15.27586713,"ECCENTRICITY":9.939e-5,"INCLINATION":43.0023,"RA_OF_ASC_NODE":174.8695,"ARG_OF_PERICENTER":297.7347,"MEAN_ANOMALY":62.3404,"EPHEMERIS_TYPE":0,"CLASSIFICATION_TYPE":"U","NORAD_CAT_ID":63808,"ELEMENT_SET_NO":999,"REV_AT_EPOCH":4860,"BSTAR":0.0011102576,"MEAN_MOTION_DOT":0.00030422,"MEAN_MOTION_DDOT":0}]
